[{"OBJECT_NAME":"STARLINK-35235","OBJECT_ID":"2025-212G","EPOCH":"2026-03-05T03:38:14.315712","MEAN_MOTION":15.30192536,"ECCENTRICITY":0.0001382,"INCLINATION":53.1621,"RA_OF_ASC_NODE":6.4062,"ARG_OF_PERICENTER":99.908,"MEAN_ANOMALY":260.2077,"EPHEMERIS_TYPE":0,"CLASSIFICATION_TYPE":"U","NORAD_CAT_ID":65682,"ELEMENT_SET_NO":999,"REV_AT_EPOCH":2650,"BSTAR":0.0010195,"MEAN_MOTION_DOT":0.0002995,"MEAN_MOTION_DDOT":0},{"OBJECT_NAME":"STARLINK-34886","OBJECT_ID":"2025-212H","EPOCH":"2026-03-05T02:28:29.935200","MEAN_MOTION":15.3019476,"ECCENTRICITY":0.000129,"INCLINATION":53.1629,"RA_OF_ASC_NODE":6.8163,"ARG_OF_PERICENTER":95.8505,"MEAN_ANOMALY":264.2643,"EPHEMERIS_TYPE":0,"CLASSIFICATION_TYPE":"U","NORAD_CAT_ID":65683,"ELEMENT_SET_NO":999,"REV_AT_EPOCH":2649,"BSTAR":0.00074488,"MEAN_MOTION_DOT":0.00021763,"MEAN_MOTION_DDOT":0},{"OBJECT_NAME":"STARLINK-34795","OBJECT_ID":"2025-212J","EPOCH":"2026-03-05T02:57:22.396896","MEAN_MOTION":15.30185292,"ECCENTRICITY":0.0001277,"INCLINATION":53.1613,"RA_OF_ASC_NODE":6.9392,"ARG_OF_PERICENTER":77.1888,"MEAN_ANOMALY":282.9256,"EPHEMERIS_TYPE":0,"CLASSIFICATION_TYPE":"U","NORAD_CAT_ID":65684,"ELEMENT_SET_NO":999,"REV_AT_EPOCH":2649,"BSTAR":0.0010177,"MEAN_MOTION_DOT":0.00029888,"MEAN_MOTION_DDOT":0},{"OBJECT_NAME":"STARLINK-35145","OBJECT_ID":"2025-212K","EPOCH":"2026-03-05T03:24:43.583040","MEAN_MOTION":15.30187764,"ECCENTRICITY":0.0001079,"INCLINATION":53.1613,"RA_OF_ASC_NODE":7.0586,"ARG_OF_PERICENTER":96.9763,"MEAN_ANOMALY":263.136,"EPHEMERIS_TYPE":0,"CLASSIFICATION_TYPE":"U","NORAD_CAT_ID":65685,"ELEMENT_SET_NO":999,"REV_AT_EPOCH":2649,"BSTAR":0.00073738,"MEAN_MOTION_DOT":0.00021535,"MEAN_MOTION_DDOT":0},{"OBJECT_NAME":"STARLINK-35137","OBJECT_ID":"2025-212L","EPOCH":"2026-03-05T04:00:01.999584","MEAN_MOTION":15.30996823,"ECCENTRICITY":0.0001185,"INCLINATION":53.1603,"RA_OF_ASC_NODE":356.7659,"ARG_OF_PERICENTER":87.0641,"MEAN_ANOMALY":144.7275,"EPHEMERIS_TYPE":0,"CLASSIFICATION_TYPE":"U","NORAD_CAT_ID":65686,"ELEMENT_SET_NO":999,"REV_AT_EPOCH":588,"BSTAR":0.0014928,"MEAN_MOTION_DOT":0.00045234,"MEAN_MOTION_DDOT":0},{"OBJECT_NAME":"STARLINK-34856","OBJECT_ID":"2025-212M","EPOCH":"2026-03-05T03:57:59.712480","MEAN_MOTION":15.30185491,"ECCENTRICITY":0.0001475,"INCLINATION":53.161,"RA_OF_ASC_NODE":6.4911,"ARG_OF_PERICENTER":113.1988,"MEAN_ANOMALY":246.9168,"EPHEMERIS_TYPE":0,"CLASSIFICATION_TYPE":"U","NORAD_CAT_ID":65687,"ELEMENT_SET_NO":999,"REV_AT_EPOCH":2650,"BSTAR":0.0011045,"MEAN_MOTION_DOT":0.00032482,"MEAN_MOTION_DDOT":0},{"OBJECT_NAME":"STARLINK-34930","OBJECT_ID":"2025-212N","EPOCH":"2026-03-05T02:37:36.914592","MEAN_MOTION":15.30191038,"ECCENTRICITY":0.0001099,"INCLINATION":53.1617,"RA_OF_ASC_NODE":6.8496,"ARG_OF_PERICENTER":74.8808,"MEAN_ANOMALY":285.2315,"EPHEMERIS_TYPE":0,"CLASSIFICATION_TYPE":"U","NORAD_CAT_ID":65688,"ELEMENT_SET_NO":999,"REV_AT_EPOCH":2654,"BSTAR":0.0007991,"MEAN_MOTION_DOT":0.00023376,"MEAN_MOTION_DDOT":0},{"OBJECT_NAME":"STARLINK-34875","OBJECT_ID":"2025-212P","EPOCH":"2026-03-05T03:15:36.026496","MEAN_MOTION":15.30225145,"ECCENTRICITY":0.0001139,"INCLINATION":53.1611,"RA_OF_ASC_NODE":7.0173,"ARG_OF_PERICENTER":113.2872,"MEAN_ANOMALY":246.8249,"EPHEMERIS_TYPE":0,"CLASSIFICATION_TYPE":"U","NORAD_CAT_ID":65689,"ELEMENT_SET_NO":999,"REV_AT_EPOCH":2654,"BSTAR":0.0013218,"MEAN_MOTION_DOT":0.00039025,"MEAN_MOTION_DDOT":0},{"OBJECT_NAME":"STARLINK-34790","OBJECT_ID":"2025-212Q","EPOCH":"2026-03-05T03:11:02.628384","MEAN_MOTION":15.30198316,"ECCENTRICITY":9.41e-5,"INCLINATION":53.1596,"RA_OF_ASC_NODE":6.997,"ARG_OF_PERICENTER":111.8579,"MEAN_ANOMALY":248.2522,"EPHEMERIS_TYPE":0,"CLASSIFICATION_TYPE":"U","NORAD_CAT_ID":65690,"ELEMENT_SET_NO":999,"REV_AT_EPOCH":2649,"BSTAR":0.0020002,"MEAN_MOTION_DOT":0.00059353,"MEAN_MOTION_DDOT":0},{"OBJECT_NAME":"STARLINK-34691","OBJECT_ID":"2025-212R","EPOCH":"2026-03-05T04:00:01.999584","MEAN_MOTION":15.3523419,"ECCENTRICITY":0.0001001,"INCLINATION":53.1613,"RA_OF_ASC_NODE":356.33,"ARG_OF_PERICENTER":93.0749,"MEAN_ANOMALY":357.2665,"EPHEMERIS_TYPE":0,"CLASSIFICATION_TYPE":"U","NORAD_CAT_ID":65691,"ELEMENT_SET_NO":999,"REV_AT_EPOCH":588,"BSTAR":-0.064135,"MEAN_MOTION_DOT":-0.01981322,"MEAN_MOTION_DDOT":0},{"OBJECT_NAME":"STARLINK-34825","OBJECT_ID":"2025-212S","EPOCH":"2026-03-05T02:46:44.018400","MEAN_MOTION":15.30193439,"ECCENTRICITY":0.000106,"INCLINATION":53.1621,"RA_OF_ASC_NODE":6.891,"ARG_OF_PERICENTER":108.058,"MEAN_ANOMALY":252.0536,"EPHEMERIS_TYPE":0,"CLASSIFICATION_TYPE":"U","NORAD_CAT_ID":65692,"ELEMENT_SET_NO":999,"REV_AT_EPOCH":2653,"BSTAR":0.00081299,"MEAN_MOTION_DOT":0.00023791,"MEAN_MOTION_DDOT":0},{"OBJECT_NAME":"STARLINK-35060","OBJECT_ID":"2025-212T","EPOCH":"2026-03-05T04:00:01.999584","MEAN_MOTION":15.32046283,"ECCENTRICITY":0.0001883,"INCLINATION":53.16,"RA_OF_ASC_NODE":356.5629,"ARG_OF_PERICENTER":94.4403,"MEAN_ANOMALY":239.0552,"EPHEMERIS_TYPE":0,"CLASSIFICATION_TYPE":"U","NORAD_CAT_ID":65693,"ELEMENT_SET_NO":999,"REV_AT_EPOCH":582,"BSTAR":-0.049086,"MEAN_MOTION_DOT":-0.01398535,"MEAN_MOTION_DDOT":0},{"OBJECT_NAME":"STARLINK-35204","OBJECT_ID":"2025-212U","EPOCH":"2026-03-05T03:01:55.615296","MEAN_MOTION":15.3017402,"ECCENTRICITY":7.44e-5,"INCLINATION":53.1609,"RA_OF_ASC_NODE":6.9557,"ARG_OF_PERICENTER":101.0345,"MEAN_ANOMALY":259.0739,"EPHEMERIS_TYPE":0,"CLASSIFICATION_TYPE":"U","NORAD_CAT_ID":65694,"ELEMENT_SET_NO":999,"REV_AT_EPOCH":2655,"BSTAR":0.00090955,"MEAN_MOTION_DOT":0.00026654,"MEAN_MOTION_DDOT":0},{"OBJECT_NAME":"STARLINK-35221","OBJECT_ID":"2025-212V","EPOCH":"2026-03-05T02:33:03.289248","MEAN_MOTION":15.30184186,"ECCENTRICITY":0.000161,"INCLINATION":53.1623,"RA_OF_ASC_NODE":6.8302,"ARG_OF_PERICENTER":95.5736,"MEAN_ANOMALY":264.5448,"EPHEMERIS_TYPE":0,"CLASSIFICATION_TYPE":"U","NORAD_CAT_ID":65695,"ELEMENT_SET_NO":999,"REV_AT_EPOCH":2655,"BSTAR":0.00032694,"MEAN_MOTION_DOT":9.331e-5,"MEAN_MOTION_DDOT":0},{"OBJECT_NAME":"STARLINK-34734","OBJECT_ID":"2025-212W","EPOCH":"2026-03-05T03:48:52.853184","MEAN_MOTION":15.30179484,"ECCENTRICITY":0.0001286,"INCLINATION":53.1627,"RA_OF_ASC_NODE":6.4485,"ARG_OF_PERICENTER":67.7541,"MEAN_ANOMALY":292.3596,"EPHEMERIS_TYPE":0,"CLASSIFICATION_TYPE":"U","NORAD_CAT_ID":65696,"ELEMENT_SET_NO":999,"REV_AT_EPOCH":2655,"BSTAR":0.00098273,"MEAN_MOTION_DOT":0.00028841,"MEAN_MOTION_DDOT":0},{"OBJECT_NAME":"STARLINK-35113","OBJECT_ID":"2025-212X","EPOCH":"2026-03-05T03:33:40.782816","MEAN_MOTION":15.30191917,"ECCENTRICITY":0.0001142,"INCLINATION":53.1616,"RA_OF_ASC_NODE":6.383,"ARG_OF_PERICENTER":83.0532,"MEAN_ANOMALY":277.0599,"EPHEMERIS_TYPE":0,"CLASSIFICATION_TYPE":"U","NORAD_CAT_ID":65697,"ELEMENT_SET_NO":999,"REV_AT_EPOCH":2655,"BSTAR":0.0010312,"MEAN_MOTION_DOT":0.00030299,"MEAN_MOTION_DDOT":0},{"OBJECT_NAME":"STARLINK-35090","OBJECT_ID":"2025-212Y","EPOCH":"2026-03-05T02:54:20.048832","MEAN_MOTION":15.30179139,"ECCENTRICITY":0.0001147,"INCLINATION":53.1601,"RA_OF_ASC_NODE":6.9232,"ARG_OF_PERICENTER":68.9614,"MEAN_ANOMALY":291.151,"EPHEMERIS_TYPE":0,"CLASSIFICATION_TYPE":"U","NORAD_CAT_ID":65698,"ELEMENT_SET_NO":999,"REV_AT_EPOCH":2654,"BSTAR":0.0015879,"MEAN_MOTION_DOT":0.00046936,"MEAN_MOTION_DDOT":0}]
