STARLINK-35235          
1 65682U 25212G   26064.15155458  .00029950  00000+0  10195-2 0  9993
2 65682  53.1621   6.4062 0001382  99.9080 260.2077 15.30192536 26506
STARLINK-34886          
1 65683U 25212H   26064.10312425  .00021763  00000+0  74488-3 0  9998
2 65683  53.1629   6.8163 0001290  95.8505 264.2643 15.30194760 26498
STARLINK-34795          
1 65684U 25212J   26064.12317589  .00029888  00000+0  10177-2 0  9997
2 65684  53.1613   6.9392 0001277  77.1888 282.9256 15.30185292 26496
STARLINK-35145          
1 65685U 25212K   26064.14217110  .00021535  00000+0  73738-3 0  9993
2 65685  53.1613   7.0586 0001079  96.9763 263.1360 15.30187764 26498
STARLINK-35137          
1 65686U 25212L   26064.16668981  .00045234  00000+0  14928-2 0  9999
2 65686  53.1603 356.7659 0001185  87.0641 144.7275 15.30996823  5880
STARLINK-34856          
1 65687U 25212M   26064.16527445  .00032482  00000+0  11045-2 0  9997
2 65687  53.1610   6.4911 0001475 113.1988 246.9168 15.30185491 26505
STARLINK-34930          
1 65688U 25212N   26064.10945503  .00023376  00000+0  79910-3 0  9999
2 65688  53.1617   6.8496 0001099  74.8808 285.2315 15.30191038 26549
STARLINK-34875          
1 65689U 25212P   26064.13583364  .00039025  00000+0  13218-2 0  9992
2 65689  53.1611   7.0173 0001139 113.2872 246.8249 15.30225145 26549
STARLINK-34790          
1 65690U 25212Q   26064.13266931  .00059353  00000+0  20002-2 0  9997
2 65690  53.1596   6.9970 0000941 111.8579 248.2522 15.30198316 26497
STARLINK-34691          
1 65691U 25212R   26064.16668981 -.01981322  00000+0 -64135-1 0  9999
2 65691  53.1613 356.3300 0001001  93.0749 357.2665 15.35234190  5880
STARLINK-34825          
1 65692U 25212S   26064.11578725  .00023791  00000+0  81299-3 0  9997
2 65692  53.1621   6.8910 0001060 108.0580 252.0536 15.30193439 26538
STARLINK-35060          
1 65693U 25212T   26064.16668981 -.01398535  00000+0 -49086-1 0  9997
2 65693  53.1600 356.5629 0001883  94.4403 239.0552 15.32046283  5821
STARLINK-35204          
1 65694U 25212U   26064.12633814  .00026654  00000+0  90955-3 0  9991
2 65694  53.1609   6.9557 0000744 101.0345 259.0739 15.30174020 26553
STARLINK-35221          
1 65695U 25212V   26064.10628807  .00009331  00000+0  32694-3 0  9995
2 65695  53.1623   6.8302 0001610  95.5736 264.5448 15.30184186 26553
STARLINK-34734          
1 65696U 25212W   26064.15894506  .00028841  00000+0  98273-3 0  9994
2 65696  53.1627   6.4485 0001286  67.7541 292.3596 15.30179484 26558
STARLINK-35113          
1 65697U 25212X   26064.14838869  .00030299  00000+0  10312-2 0  9991
2 65697  53.1616   6.3830 0001142  83.0532 277.0599 15.30191917 26550
STARLINK-35090          
1 65698U 25212Y   26064.12106538  .00046936  00000+0  15879-2 0  9999
2 65698  53.1601   6.9232 0001147  68.9614 291.1510 15.30179139 26546
